{
  "_updated_at": "2026-04-21T04:50:21Z",
  "_source": "Celestrak GP / GitHub Actions auto-update",
  "_update_interval": "daily at UTC 02:00",
  "_warnings": [],
  "satellites": [
    {
      "name": "SES-12",
      "catnr": 43488,
      "orbit": "GEO",
      "line0": "SES-12",
      "line1": "1 43488U 18049A   26110.90530920 -.00000272  00000+0  00000+0 0  9997",
      "line2": "2 43488   0.0466  62.9801 0001660 236.9173 330.0015  1.00270268 28845"
    },
    {
      "name": "SES-14",
      "catnr": 43175,
      "orbit": "GEO",
      "line0": "SES-14",
      "line1": "1 43175U 18012B   26110.92307993 -.00000282  00000+0  00000+0 0  9995",
      "line2": "2 43175   0.0270  22.2218 0000819 351.8103 119.7943  1.00270142  6453"
    },
    {
      "name": "SES-15",
      "catnr": 42709,
      "orbit": "GEO",
      "line0": "SES-15",
      "line1": "1 42709U 17026A   26110.69301216  .00000058  00000+0  00000+0 0  9997",
      "line2": "2 42709   0.0257 320.2905 0000604  29.3996 339.4171  1.00269721  6852"
    },
    {
      "name": "SES-17",
      "catnr": 49332,
      "orbit": "GEO",
      "line0": "SES-17",
      "line1": "1 49332U 21095A   26110.50461351 -.00000274  00000+0  00000+0 0  9995",
      "line2": "2 49332   0.0285  54.5885 0000440 338.7970 289.7725  1.00271420 17272"
    },
    {
      "name": "AMC-9",
      "catnr": 27820,
      "orbit": "GEO",
      "line0": "AMC-9 (GE-12)",
      "line1": "1 27820U 03024A   26110.92935355 -.00000039  00000+0  00000+0 0  9990",
      "line2": "2 27820   7.7790  66.3783 0018074 343.8254 226.6785  0.99028891 83422"
    },
    {
      "name": "NSS-12",
      "catnr": 36032,
      "orbit": "GEO",
      "line0": "NSS-12",
      "line1": "1 36032U 09058A   26110.87246639  .00000069  00000+0  00000+0 0  9994",
      "line2": "2 36032   0.0622  58.9766 0005071 308.2903 212.7788  1.00270485 60340"
    },
    {
      "name": "O3b mPOWER F1",
      "catnr": 54755,
      "orbit": "MEO",
      "line0": "O3B MPOWER F1",
      "line1": "1 54755U 22174A   26110.66572522 -.00000019  00000+0  00000+0 0  9996",
      "line2": "2 54755   0.0604 347.7772 0005764  58.5773 117.1081  5.00114811 62482"
    },
    {
      "name": "O3b mPOWER F2",
      "catnr": 54756,
      "orbit": "MEO",
      "line0": "O3B MPOWER F2",
      "line1": "1 54756U 22174B   26110.74150148 -.00000019  00000+0  00000+0 0  9992",
      "line2": "2 54756   0.0571 345.3291 0005939  42.7882 331.9153  5.00115335 62574"
    },
    {
      "name": "O3b mPOWER F3",
      "catnr": 56368,
      "orbit": "MEO",
      "line0": "O3B MPOWER F3",
      "line1": "1 56368U 23059B   26110.83910071 -.00000020  00000+0  00000+0 0  9997",
      "line2": "2 56368   0.0660   2.8879 0006629  29.7305 327.4230  5.00116559 51868"
    },
    {
      "name": "O3b mPOWER F4",
      "catnr": 56367,
      "orbit": "MEO",
      "line0": "O3B MPOWER F4",
      "line1": "1 56367U 23059A   26110.80582246 -.00000019  00000+0  00000+0 0  9990",
      "line2": "2 56367   0.0648   3.0949 0007194  39.1010 317.8599  5.00115870 55736"
    },
    {
      "name": "O3b mPOWER F5",
      "catnr": 58346,
      "orbit": "MEO",
      "line0": "O3B MPOWER F5",
      "line1": "1 58346U 23175A   26110.73992159 -.00000019  00000+0  00000+0 0  9998",
      "line2": "2 58346   0.0443  11.2207 0004427  30.4712 318.3423  5.00115580 46566"
    },
    {
      "name": "O3b mPOWER F6",
      "catnr": 58347,
      "orbit": "MEO",
      "line0": "O3B MPOWER F6",
      "line1": "1 58347U 23175B   26110.84059583 -.00000020  00000+0  00000+0 0  9998",
      "line2": "2 58347   0.0511   6.0253 0004743  14.1252 339.8686  5.00116214 45489"
    }
  ]
}